TERRA                   
1 25994U 99068A   14296.44544182  .00000756  00000+0  17777-3 0  7521
2 25994  98.2003   9.3338 0001393  95.5420 264.5943 14.57126849789745
TERRA                   
1 25994U 99068A   14296.72011679  .00000739  00000+0  17397-3 0  7543
2 25994  98.2001   9.6042 0001414  98.1264 262.0088 14.57127207789783
TERRA                   
1 25994U 99068A   14297.06346141  .00000747  00000+0  17582-3 0  7552
2 25994  98.2004   9.9424 0001361  96.3542 263.7821 14.57127611789831
TERRA                   
1 25994U 99068A   14297.40680494  .00000724  00000+0  17069-3 0  7568
2 25994  98.2007  10.2807 0001414  97.0408 263.0954 14.57128204789886
TERRA                   
1 25994U 99068A   14297.75014857  .00000711  00000+0  16773-3 0  7578
2 25994  98.2011  10.6194 0001508  99.3455 260.7905 14.57128605789936
TERRA                   
1 25994U 99068A   14298.09349276  .00000772  00000+0  18123-3 0  7581
2 25994  98.2011  10.9577 0001465  97.3563 262.7821 14.57129342789987
TERRA                   
1 25994U 99068A   14298.23082982  .00000820  00000+0  19185-3 0  7599
2 25994  98.2010  11.0932 0001450  99.2621 260.8769 14.57129934790005
TERRA                   
1 25994U 99068A   14298.78017860  .00000751  00000+0  17659-3 0  7601
2 25994  98.2006  11.6341 0001325  95.9056 264.2276 14.57130459790089
TERRA                   
1 25994U 99068A   14299.19219071  .00000824  00000+0  19276-3 0  7614
2 25994  98.2009  12.0401 0001390  98.3519 261.7853 14.57131521790148
TERRA                   
1 25994U 99068A   14299.46686455  .00000815  00000+0  19087-3 0  7629
2 25994  98.2008  12.3110 0001392  99.3155 260.8201 14.57132067790183
TERRA                   
1 25994U 99068A   14299.81020753  .00000749  00000+0  17623-3 0  7632
2 25994  98.2004  12.6486 0001309  97.0502 263.0827 14.57132194790233
TERRA                   
1 25994U 99068A   14300.15355082  .00000776  00000+0  18213-3 0  7645
2 25994  98.2004  12.9867 0001292  94.9615 265.1741 14.57132900790289
TERRA                   
1 25994U 99068A   14300.49689333  .00000784  00000+0  18392-3 0  7659
2 25994  98.2003  13.3250 0001289  94.1478 265.9880 14.57133590790338
TERRA                   
1 25994U 99068A   14300.84023550  .00000805  00000+0  18854-3 0  7669
2 25994  98.2002  13.6628 0001304  92.3061 267.8268 14.57134138790380
TERRA                   
1 25994U 99068A   14301.18357809  .00000885  00000+0  20632-3 0  7670
2 25994  98.1998  14.0012 0001316  91.0717 269.0654 14.57135298790439
TERRA                   
1 25994U 99068A   14301.45825103  .00000929  00000+0  21599-3 0  7680
2 25994  98.1998  14.2718 0001302  91.2797 268.8553 14.57136117790479
TERRA                   
1 25994U 99068A   14301.80159286  .00000890  00000+0  20739-3 0  7694
2 25994  98.1996  14.6097 0001312  91.0980 269.0347 14.57136458790522
TERRA                   
1 25994U 99068A   14302.14493502  .00001002  00000+0  23227-3 0  7707
2 25994  98.1993  14.9478 0001315  88.6515 271.4851 14.57137717790575
TERRA                   
1 25994U 99068A   14302.48827625  .00000987  00000+0  22892-3 0  7710
2 25994  98.1991  15.2857 0001315  87.4382 272.6969 14.57138414790621
TERRA                   
1 25994U 99068A   14302.83161749  .00000906  00000+0  21108-3 0  7728
2 25994  98.1999  15.6244 0001348  87.5578 272.5731 14.57138439790675
TERRA                   
1 25994U 99068A   14303.17496046  .00000653  00000+0  15477-3 0  7739
2 25994  98.2008  15.9628 0001351  83.1759 276.9562 14.57137619790728
TERRA                   
1 25994U 99068A   14303.51830322  .00000457  00000+0  11150-3 0  7743
2 25994  98.2008  16.3001 0001402  81.1343 278.9996 14.57137072790773
TERRA                   
1 25994U 99068A   14303.79297812  .00000093  00000+0  30703-4 0  7757
2 25994  98.2015  16.5718 0001285  73.9311 286.1999 14.57135151790816
TERRA                   
1 25994U 99068A   14304.13632290 -.00000498  00000+0 -10044-3 0  7766
2 25994  98.2027  16.9102 0001324  81.2934 278.8397 14.57131977790864
TERRA                   
1 25994U 99068A   14304.47966743 -.00000889  00000+0 -18723-3 0  7773
2 25994  98.2029  17.2475 0001393  77.0824 283.0521 14.57129825790912
TERRA                   
1 25994U 99068A   14304.82301120 -.00001158  00000+0 -24686-3 0  7780
2 25994  98.2040  17.5872 0001340  79.8612 280.2701 14.57127780790968
TERRA                   
1 25994U 99068A   14305.16635583 -.00001152  00000+0 -24566-3 0  7793
2 25994  98.2048  17.9255 0001265  82.6833 277.4568 14.57127544791012
TERRA                   
1 25994U 99068A   14305.50969850 -.00001130  00000+0 -24077-3 0  7803
2 25994  98.2054  18.2638 0001284  80.4626 279.6727 14.57127134791066
TERRA                   
1 25994U 99068A   14305.85304204 -.00000894  00000+0 -18841-3 0  7816
2 25994  98.2069  18.6034 0001410  82.2367 277.9006 14.57127534791110
TERRA                   
1 25994U 99068A   14306.19638494 -.00000626  00000+0 -12891-3 0  7828
2 25994  98.2077  18.9414 0001336  80.9978 279.1403 14.57128496791162
TERRA                   
1 25994U 99068A   14306.47105820 -.00000301  00000+0 -56821-4 0  7834
2 25994  98.2085  19.2120 0001327  85.8398 274.2977 14.57129956791208
