OBJECT_NAME,OBJECT_ID,EPOCH,MEAN_MOTION,ECCENTRICITY,INCLINATION,RA_OF_ASC_NODE,ARG_OF_PERICENTER,MEAN_ANOMALY,EPHEMERIS_TYPE,CLASSIFICATION_TYPE,NORAD_CAT_ID,ELEMENT_SET_NO,REV_AT_EPOCH,BSTAR,MEAN_MOTION_DOT,MEAN_MOTION_DDOT
TERRA,1999-068A,2014-10-23T10:41:26.173248,14.57126849,.0001393,98.2003,9.3338,95.5420,264.5943,0,U,25994,752,78974,.17777E-3,.756E-5,0
TERRA,1999-068A,2014-10-23T17:16:58.090656,14.57127207,.0001414,98.2001,9.6042,98.1264,262.0088,0,U,25994,754,78978,.17397E-3,.739E-5,0
TERRA,1999-068A,2014-10-24T01:31:23.065824,14.57127611,.0001361,98.2004,9.9424,96.3542,263.7821,0,U,25994,755,78983,.17582E-3,.747E-5,0
TERRA,1999-068A,2014-10-24T09:45:47.946816,14.57128204,.0001414,98.2007,10.2807,97.0408,263.0954,0,U,25994,756,78988,.17069E-3,.724E-5,0
TERRA,1999-068A,2014-10-24T18:00:12.836448,14.57128605,.0001508,98.2011,10.6194,99.3455,260.7905,0,U,25994,757,78993,.16773E-3,.711E-5,0
TERRA,1999-068A,2014-10-25T02:14:37.774464,14.57129342,.0001465,98.2011,10.9577,97.3563,262.7821,0,U,25994,758,78998,.18123E-3,.772E-5,0
TERRA,1999-068A,2014-10-25T05:32:23.696448,14.57129934,.000145,98.2010,11.0932,99.2621,260.8769,0,U,25994,759,79000,.19185E-3,.82E-5,0
TERRA,1999-068A,2014-10-25T18:43:27.431040,14.57130459,.0001325,98.2006,11.6341,95.9056,264.2276,0,U,25994,760,79008,.17659E-3,.751E-5,0
TERRA,1999-068A,2014-10-26T04:36:45.277344,14.57131521,.000139,98.2009,12.0401,98.3519,261.7853,0,U,25994,761,79014,.19276E-3,.824E-5,0
TERRA,1999-068A,2014-10-26T11:12:17.097120,14.57132067,.0001392,98.2008,12.3110,99.3155,260.8201,0,U,25994,762,79018,.19087E-3,.815E-5,0
TERRA,1999-068A,2014-10-26T19:26:41.930592,14.57132194,.0001309,98.2004,12.6486,97.0502,263.0827,0,U,25994,763,79023,.17623E-3,.749E-5,0
TERRA,1999-068A,2014-10-27T03:41:06.790848,14.57132900,.0001292,98.2004,12.9867,94.9615,265.1741,0,U,25994,764,79028,.18213E-3,.776E-5,0
TERRA,1999-068A,2014-10-27T11:55:31.583712,14.57133590,.0001289,98.2003,13.3250,94.1478,265.9880,0,U,25994,765,79033,.18392E-3,.784E-5,0
TERRA,1999-068A,2014-10-27T20:09:56.347200,14.57134138,.0001304,98.2002,13.6628,92.3061,267.8268,0,U,25994,766,79038,.18854E-3,.805E-5,0
TERRA,1999-068A,2014-10-28T04:24:21.146976,14.57135298,.0001316,98.1998,14.0012,91.0717,269.0654,0,U,25994,767,79043,.20632E-3,.885E-5,0
TERRA,1999-068A,2014-10-28T10:59:52.888992,14.57136117,.0001302,98.1998,14.2718,91.2797,268.8553,0,U,25994,768,79047,.21599E-3,.929E-5,0
TERRA,1999-068A,2014-10-28T19:14:17.623104,14.57136458,.0001312,98.1996,14.6097,91.0980,269.0347,0,U,25994,769,79052,.20739E-3,.89E-5,0
TERRA,1999-068A,2014-10-29T03:28:42.385728,14.57137717,.0001315,98.1993,14.9478,88.6515,271.4851,0,U,25994,770,79057,.23227E-3,.1002E-4,0
TERRA,1999-068A,2014-10-29T11:43:07.068000,14.57138414,.0001315,98.1991,15.2857,87.4382,272.6969,0,U,25994,771,79062,.22892E-3,.987E-5,0
TERRA,1999-068A,2014-10-29T19:57:31.751136,14.57138439,.0001348,98.1999,15.6244,87.5578,272.5731,0,U,25994,772,79067,.21108E-3,.906E-5,0
TERRA,1999-068A,2014-10-30T04:11:56.583744,14.57137619,.0001351,98.2008,15.9628,83.1759,276.9562,0,U,25994,773,79072,.15477E-3,.653E-5,0
TERRA,1999-068A,2014-10-30T12:26:21.398208,14.57137072,.0001402,98.2008,16.3001,81.1343,278.9996,0,U,25994,774,79077,.1115E-3,.457E-5,0
TERRA,1999-068A,2014-10-30T19:01:53.309568,14.57135151,.0001285,98.2015,16.5718,73.9311,286.1999,0,U,25994,775,79081,.30703E-4,.93E-6,0
TERRA,1999-068A,2014-10-31T03:16:18.298560,14.57131977,.0001324,98.2027,16.9102,81.2934,278.8397,0,U,25994,776,79086,-.10044E-3,-.498E-5,0
TERRA,1999-068A,2014-10-31T11:30:43.265952,14.57129825,.0001393,98.2029,17.2475,77.0824,283.0521,0,U,25994,777,79091,-.18723E-3,-.889E-5,0
TERRA,1999-068A,2014-10-31T19:45:08.167680,14.57127780,.000134,98.2040,17.5872,79.8612,280.2701,0,U,25994,778,79096,-.24686E-3,-.1158E-4,0
TERRA,1999-068A,2014-11-01T03:59:33.143712,14.57127544,.0001265,98.2048,17.9255,82.6833,277.4568,0,U,25994,779,79101,-.24566E-3,-.1152E-4,0
TERRA,1999-068A,2014-11-01T12:13:57.950400,14.57127134,.0001284,98.2054,18.2638,80.4626,279.6727,0,U,25994,780,79106,-.24077E-3,-.113E-4,0
TERRA,1999-068A,2014-11-01T20:28:22.832256,14.57127534,.000141,98.2069,18.6034,82.2367,277.9006,0,U,25994,781,79111,-.18841E-3,-.894E-5,0
TERRA,1999-068A,2014-11-02T04:42:47.658816,14.57128496,.0001336,98.2077,18.9414,80.9978,279.1403,0,U,25994,782,79116,-.12891E-3,-.626E-5,0
TERRA,1999-068A,2014-11-02T11:18:19.428480,14.57129956,.0001327,98.2085,19.2120,85.8398,274.2977,0,U,25994,783,79120,-.56821E-4,-.301E-5,0
